STARLINK-3099           
1 49446U 21104AQ  26082.45489852  .00001694  00000+0  12451-3 0  9993
2 49446  53.2154 147.3248 0001296  87.7608 272.3532 15.08844471240992
STARLINK-3115           
1 49447U 21104AR  26082.92867876  .00000689  00000+0  61331-4 0  9997
2 49447  53.2177 155.1996 0001329  78.3489 281.7653 15.08863187240921
STARLINK-3137           
1 49449U 21104AT  26082.84701431  .00027601  00000+0  63191-3 0  9992
2 49449  53.2169 138.6243 0003483  37.8642 322.2610 15.42605894241156
STARLINK-3127           
1 49450U 21104AU  26082.93606946 -.00002220  00000+0 -12142-3 0  9991
2 49450  53.2169 155.2042 0001434 134.3937 225.7173 15.08849000241189
STARLINK-3125           
1 49451U 21104AV  26082.59012593  .00000287  00000+0  36121-4 0  9996
2 49451  53.2182 156.7202 0001335  86.7032 273.4113 15.08856866240872
STARLINK-3150           
1 49452U 21104AW  26082.58007689 -.00001327  00000+0 -65300-4 0  9995
2 49452  53.2177 156.8050 0001378  86.6893 273.4257 15.08836081240876
STARLINK-3129           
1 49453U 21104AX  26082.59110805  .00000511  00000+0  50188-4 0  9992
2 49453  53.2168 156.8019 0001179  83.5128 276.5998 15.08853855240872
STARLINK-3160           
1 49454U 21104AY  26082.91766498 -.00000740  00000+0 -28397-4 0  9997
2 49454  53.2165 155.2501 0001230  83.2998 276.8134 15.08843289240920
STARLINK-3145           
1 49455U 21104AZ  26082.90294491 -.00000206  00000+0  51143-5 0  9998
2 49455  53.2169 155.3163 0001192  85.6028 274.5100 15.08843885240927
STARLINK-3124           
1 49456U 21104BA  26082.91495777  .00005400  00000+0  35736-3 0  9998
2 49456  53.2198 155.3132 0002007 103.3250 256.7966 15.08815164240928
STARLINK-3132           
1 49457U 21104BB  26082.90023047 -.00000696  00000+0 -25631-4 0  9993
2 49457  53.2171 155.3387 0001182  88.4911 271.6217 15.08837934240926
STARLINK-3156           
1 49458U 21104BC  26082.90661801 -.00000304  00000+0 -10005-5 0  9996
2 49458  53.2167 155.2989 0001390  83.1094 277.0056 15.08841655240920
STARLINK-3141           
1 49459U 21104BD  26082.89559668  .00006760  00000+0  44243-3 0  9991
2 49459  53.2150 155.3492 0001271  89.4437 270.6701 15.08836330240921
STARLINK-3140           
1 49460U 21104BE  26082.89190763 -.00001080  00000+0 -49796-4 0  9991
2 49460  53.2172 155.3662 0001186  88.5906 271.5222 15.08841821240910
STARLINK-3219           
1 49724U 21115A   26082.69596888 -.00002098  00000+0 -11376-3 0  9994
2 49724  53.2175  86.4658 0001372  83.0218 277.0930 15.08837879237649
STARLINK-3218           
1 49725U 21115B   26082.71804116  .00001582  00000+0  11744-3 0  9998
2 49725  53.2167  86.2507 0001408  83.1626 276.9527 15.08848227237656
