[{"OBJECT_NAME":"STARLINK-3099","OBJECT_ID":"2021-104AQ","EPOCH":"2026-03-23T10:55:03.232128","MEAN_MOTION":15.08844471,"ECCENTRICITY":0.00012966,"INCLINATION":53.2154,"RA_OF_ASC_NODE":147.3248,"ARG_OF_PERICENTER":87.7608,"MEAN_ANOMALY":272.3532,"EPHEMERIS_TYPE":0,"CLASSIFICATION_TYPE":"U","NORAD_CAT_ID":49446,"ELEMENT_SET_NO":999,"REV_AT_EPOCH":24099,"BSTAR":0.00012451057,"MEAN_MOTION_DOT":1.694e-5,"MEAN_MOTION_DDOT":0},{"OBJECT_NAME":"STARLINK-3115","OBJECT_ID":"2021-104AR","EPOCH":"2026-03-23T22:17:17.844864","MEAN_MOTION":15.08863187,"ECCENTRICITY":0.00013298,"INCLINATION":53.2177,"RA_OF_ASC_NODE":155.1996,"ARG_OF_PERICENTER":78.3489,"MEAN_ANOMALY":281.7653,"EPHEMERIS_TYPE":0,"CLASSIFICATION_TYPE":"U","NORAD_CAT_ID":49447,"ELEMENT_SET_NO":999,"REV_AT_EPOCH":24092,"BSTAR":6.133073e-5,"MEAN_MOTION_DOT":6.89e-6,"MEAN_MOTION_DDOT":0},{"OBJECT_NAME":"STARLINK-3137","OBJECT_ID":"2021-104AT","EPOCH":"2026-03-23T20:19:42.036384","MEAN_MOTION":15.42605894,"ECCENTRICITY":0.00034837,"INCLINATION":53.2169,"RA_OF_ASC_NODE":138.6243,"ARG_OF_PERICENTER":37.8642,"MEAN_ANOMALY":322.261,"EPHEMERIS_TYPE":0,"CLASSIFICATION_TYPE":"U","NORAD_CAT_ID":49449,"ELEMENT_SET_NO":999,"REV_AT_EPOCH":24115,"BSTAR":0.00063191381,"MEAN_MOTION_DOT":0.00027601,"MEAN_MOTION_DDOT":0},{"OBJECT_NAME":"STARLINK-3127","OBJECT_ID":"2021-104AU","EPOCH":"2026-03-23T22:27:56.401344","MEAN_MOTION":15.08849,"ECCENTRICITY":0.00014347,"INCLINATION":53.2169,"RA_OF_ASC_NODE":155.2042,"ARG_OF_PERICENTER":134.3937,"MEAN_ANOMALY":225.7173,"EPHEMERIS_TYPE":0,"CLASSIFICATION_TYPE":"U","NORAD_CAT_ID":49450,"ELEMENT_SET_NO":999,"REV_AT_EPOCH":24118,"BSTAR":-0.00012142067,"MEAN_MOTION_DOT":-2.22e-5,"MEAN_MOTION_DDOT":0},{"OBJECT_NAME":"STARLINK-3125","OBJECT_ID":"2021-104AV","EPOCH":"2026-03-23T14:09:46.880352","MEAN_MOTION":15.08856866,"ECCENTRICITY":0.00013359,"INCLINATION":53.2182,"RA_OF_ASC_NODE":156.7202,"ARG_OF_PERICENTER":86.7032,"MEAN_ANOMALY":273.4113,"EPHEMERIS_TYPE":0,"CLASSIFICATION_TYPE":"U","NORAD_CAT_ID":49451,"ELEMENT_SET_NO":999,"REV_AT_EPOCH":24087,"BSTAR":3.6121434e-5,"MEAN_MOTION_DOT":2.87e-6,"MEAN_MOTION_DDOT":0},{"OBJECT_NAME":"STARLINK-3150","OBJECT_ID":"2021-104AW","EPOCH":"2026-03-23T13:55:18.643296","MEAN_MOTION":15.08836081,"ECCENTRICITY":0.00013785,"INCLINATION":53.2177,"RA_OF_ASC_NODE":156.805,"ARG_OF_PERICENTER":86.6893,"MEAN_ANOMALY":273.4257,"EPHEMERIS_TYPE":0,"CLASSIFICATION_TYPE":"U","NORAD_CAT_ID":49452,"ELEMENT_SET_NO":999,"REV_AT_EPOCH":24087,"BSTAR":-6.5299934e-5,"MEAN_MOTION_DOT":-1.327e-5,"MEAN_MOTION_DDOT":0},{"OBJECT_NAME":"STARLINK-3129","OBJECT_ID":"2021-104AX","EPOCH":"2026-03-23T14:11:11.735520","MEAN_MOTION":15.08853855,"ECCENTRICITY":0.00011799,"INCLINATION":53.2168,"RA_OF_ASC_NODE":156.8019,"ARG_OF_PERICENTER":83.5128,"MEAN_ANOMALY":276.5998,"EPHEMERIS_TYPE":0,"CLASSIFICATION_TYPE":"U","NORAD_CAT_ID":49453,"ELEMENT_SET_NO":999,"REV_AT_EPOCH":24087,"BSTAR":5.0188244e-5,"MEAN_MOTION_DOT":5.11e-6,"MEAN_MOTION_DDOT":0},{"OBJECT_NAME":"STARLINK-3160","OBJECT_ID":"2021-104AY","EPOCH":"2026-03-23T22:01:26.254272","MEAN_MOTION":15.08843289,"ECCENTRICITY":0.00012301,"INCLINATION":53.2165,"RA_OF_ASC_NODE":155.2501,"ARG_OF_PERICENTER":83.2998,"MEAN_ANOMALY":276.8134,"EPHEMERIS_TYPE":0,"CLASSIFICATION_TYPE":"U","NORAD_CAT_ID":49454,"ELEMENT_SET_NO":999,"REV_AT_EPOCH":24092,"BSTAR":-2.8397213e-5,"MEAN_MOTION_DOT":-7.4e-6,"MEAN_MOTION_DDOT":0},{"OBJECT_NAME":"STARLINK-3145","OBJECT_ID":"2021-104AZ","EPOCH":"2026-03-23T21:40:14.440224","MEAN_MOTION":15.08843885,"ECCENTRICITY":0.00011925,"INCLINATION":53.2169,"RA_OF_ASC_NODE":155.3163,"ARG_OF_PERICENTER":85.6028,"MEAN_ANOMALY":274.51,"EPHEMERIS_TYPE":0,"CLASSIFICATION_TYPE":"U","NORAD_CAT_ID":49455,"ELEMENT_SET_NO":999,"REV_AT_EPOCH":24092,"BSTAR":5.114289e-6,"MEAN_MOTION_DOT":-2.06e-6,"MEAN_MOTION_DDOT":0},{"OBJECT_NAME":"STARLINK-3124","OBJECT_ID":"2021-104BA","EPOCH":"2026-03-23T21:57:32.351328","MEAN_MOTION":15.08815164,"ECCENTRICITY":0.00020077,"INCLINATION":53.2198,"RA_OF_ASC_NODE":155.3132,"ARG_OF_PERICENTER":103.325,"MEAN_ANOMALY":256.7966,"EPHEMERIS_TYPE":0,"CLASSIFICATION_TYPE":"U","NORAD_CAT_ID":49456,"ELEMENT_SET_NO":999,"REV_AT_EPOCH":24092,"BSTAR":0.00035735553,"MEAN_MOTION_DOT":5.4e-5,"MEAN_MOTION_DDOT":0},{"OBJECT_NAME":"STARLINK-3132","OBJECT_ID":"2021-104BB","EPOCH":"2026-03-23T21:36:19.912608","MEAN_MOTION":15.08837934,"ECCENTRICITY":0.00011829,"INCLINATION":53.2171,"RA_OF_ASC_NODE":155.3387,"ARG_OF_PERICENTER":88.4911,"MEAN_ANOMALY":271.6217,"EPHEMERIS_TYPE":0,"CLASSIFICATION_TYPE":"U","NORAD_CAT_ID":49457,"ELEMENT_SET_NO":999,"REV_AT_EPOCH":24092,"BSTAR":-2.5630614e-5,"MEAN_MOTION_DOT":-6.96e-6,"MEAN_MOTION_DDOT":0},{"OBJECT_NAME":"STARLINK-3156","OBJECT_ID":"2021-104BC","EPOCH":"2026-03-23T21:45:31.796064","MEAN_MOTION":15.08841655,"ECCENTRICITY":0.00013902,"INCLINATION":53.2167,"RA_OF_ASC_NODE":155.2989,"ARG_OF_PERICENTER":83.1094,"MEAN_ANOMALY":277.0056,"EPHEMERIS_TYPE":0,"CLASSIFICATION_TYPE":"U","NORAD_CAT_ID":49458,"ELEMENT_SET_NO":999,"REV_AT_EPOCH":24092,"BSTAR":-1.000493e-6,"MEAN_MOTION_DOT":-3.04e-6,"MEAN_MOTION_DDOT":0},{"OBJECT_NAME":"STARLINK-3141","OBJECT_ID":"2021-104BD","EPOCH":"2026-03-23T21:29:39.553152","MEAN_MOTION":15.0883633,"ECCENTRICITY":0.00012719,"INCLINATION":53.215,"RA_OF_ASC_NODE":155.3492,"ARG_OF_PERICENTER":89.4437,"MEAN_ANOMALY":270.6701,"EPHEMERIS_TYPE":0,"CLASSIFICATION_TYPE":"U","NORAD_CAT_ID":49459,"ELEMENT_SET_NO":999,"REV_AT_EPOCH":24092,"BSTAR":0.00044242978,"MEAN_MOTION_DOT":6.76e-5,"MEAN_MOTION_DDOT":0},{"OBJECT_NAME":"STARLINK-3140","OBJECT_ID":"2021-104BE","EPOCH":"2026-03-23T21:24:20.819232","MEAN_MOTION":15.08841821,"ECCENTRICITY":0.00011869,"INCLINATION":53.2172,"RA_OF_ASC_NODE":155.3662,"ARG_OF_PERICENTER":88.5906,"MEAN_ANOMALY":271.5222,"EPHEMERIS_TYPE":0,"CLASSIFICATION_TYPE":"U","NORAD_CAT_ID":49460,"ELEMENT_SET_NO":999,"REV_AT_EPOCH":24091,"BSTAR":-4.9796348e-5,"MEAN_MOTION_DOT":-1.08e-5,"MEAN_MOTION_DDOT":0},{"OBJECT_NAME":"STARLINK-3219","OBJECT_ID":"2021-115A","EPOCH":"2026-03-23T16:42:11.711232","MEAN_MOTION":15.08837879,"ECCENTRICITY":0.00013724,"INCLINATION":53.2175,"RA_OF_ASC_NODE":86.4658,"ARG_OF_PERICENTER":83.0218,"MEAN_ANOMALY":277.093,"EPHEMERIS_TYPE":0,"CLASSIFICATION_TYPE":"U","NORAD_CAT_ID":49724,"ELEMENT_SET_NO":999,"REV_AT_EPOCH":23764,"BSTAR":-0.00011376156,"MEAN_MOTION_DOT":-2.098e-5,"MEAN_MOTION_DDOT":0},{"OBJECT_NAME":"STARLINK-3218","OBJECT_ID":"2021-115B","EPOCH":"2026-03-23T17:13:58.756224","MEAN_MOTION":15.08848227,"ECCENTRICITY":0.00014082,"INCLINATION":53.2167,"RA_OF_ASC_NODE":86.2507,"ARG_OF_PERICENTER":83.1626,"MEAN_ANOMALY":276.9527,"EPHEMERIS_TYPE":0,"CLASSIFICATION_TYPE":"U","NORAD_CAT_ID":49725,"ELEMENT_SET_NO":999,"REV_AT_EPOCH":23765,"BSTAR":0.00011743783,"MEAN_MOTION_DOT":1.582e-5,"MEAN_MOTION_DDOT":0}]
